{
  "type": "FeatureCollection",
  "features": [
    {
      "type": "Feature",
      "properties": {
        "norad_id": 31097,
        "name": "FENGYUN 1C DEB",
        "group": "fengyun-1c-debris",
        "lat": -38.46287658587199,
        "lon": -84.01567340235498,
        "alt_km": 738.7459151588073,
        "timestamp": "2025-12-06T14:35:37.407220+00:00",
        "meta_object_name": "FENGYUN 1C DEB",
        "meta_object_id": "1999-025BGT",
        "meta_epoch": "2025-12-04T14:03:11.455200",
        "meta_mean_motion": 14.46732949,
        "meta_eccentricity": 0.0014656,
        "meta_inclination": 98.8601,
        "meta_ra_of_asc_node": 100.9877,
        "meta_arg_of_pericenter": 294.417,
        "meta_mean_anomaly": 196.5748,
        "meta_ephemeris_type": 0,
        "meta_classification_type": "U",
        "meta_norad_cat_id": 31097,
        "meta_element_set_no": 999,
        "meta_rev_at_epoch": 96920,
        "meta_bstar": 0.0067438,
        "meta_mean_motion_dot": 0.00024464,
        "meta_mean_motion_ddot": 0,
        "tle_line1": "1 31097U 99025BGT 25338.58554925  .00024464  00000+0  67438-2 0  9998",
        "tle_line2": "2 31097  98.8601 100.9877 0014656 294.4170 196.5748 14.46732949969200"
      },
      "geometry": {
        "type": "Point",
        "coordinates": [
          -84.01567340235498,
          -38.46287658587199
        ]
      }
    },
    {
      "type": "Feature",
      "properties": {
        "norad_id": 31098,
        "name": "FENGYUN 1C DEB",
        "group": "fengyun-1c-debris",
        "lat": -12.267410437275961,
        "lon": 100.1691524202958,
        "alt_km": 724.4229762064379,
        "timestamp": "2025-12-06T14:35:37.407230+00:00",
        "meta_object_name": "FENGYUN 1C DEB",
        "meta_object_id": "1999-025BGU",
        "meta_epoch": "2025-12-05T13:49:49.699488",
        "meta_mean_motion": 14.5123672,
        "meta_eccentricity": 0.00143024,
        "meta_inclination": 98.8707,
        "meta_ra_of_asc_node": 97.1353,
        "meta_arg_of_pericenter": 268.8041,
        "meta_mean_anomaly": 91.1514,
        "meta_ephemeris_type": 0,
        "meta_classification_type": "U",
        "meta_norad_cat_id": 31098,
        "meta_element_set_no": 999,
        "meta_rev_at_epoch": 96853,
        "meta_bstar": 0.0061418262,
        "meta_mean_motion_dot": 0.00024483,
        "meta_mean_motion_ddot": 0,
        "tle_line1": "1 31098U 99025BGU 25339.57626967  .00024483  00000+0  61418-2 0  9998",
        "tle_line2": "2 31098  98.8707  97.1353 0014302 268.8041  91.1514 14.51236720968532"
      },
      "geometry": {
        "type": "Point",
        "coordinates": [
          100.1691524202958,
          -12.267410437275961
        ]
      }
    },
    {
      "type": "Feature",
      "properties": {
        "norad_id": 31099,
        "name": "FENGYUN 1C DEB",
        "group": "fengyun-1c-debris",
        "lat": -27.684068249652928,
        "lon": -122.32064593647314,
        "alt_km": 766.307669044757,
        "timestamp": "2025-12-06T14:35:37.407241+00:00",
        "meta_object_name": "FENGYUN 1C DEB",
        "meta_object_id": "1999-025BGV",
        "meta_epoch": "2025-12-04T15:47:08.824128",
        "meta_mean_motion": 14.27901878,
        "meta_eccentricity": 0.0062914,
        "meta_inclination": 98.9375,
        "meta_ra_of_asc_node": 230.9486,
        "meta_arg_of_pericenter": 305.1809,
        "meta_mean_anomaly": 86.5484,
        "meta_ephemeris_type": 0,
        "meta_classification_type": "U",
        "meta_norad_cat_id": 31099,
        "meta_element_set_no": 999,
        "meta_rev_at_epoch": 97356,
        "meta_bstar": 0.00059391,
        "meta_mean_motion_dot": 1.455e-05,
        "meta_mean_motion_ddot": 0,
        "tle_line1": "1 31099U 99025BGV 25338.65774102  .00001455  00000+0  59391-3 0  9994",
        "tle_line2": "2 31099  98.9375 230.9486 0062914 305.1809  86.5484 14.27901878973567"
      },
      "geometry": {
        "type": "Point",
        "coordinates": [
          -122.32064593647314,
          -27.684068249652928
        ]
      }
    },
    {
      "type": "Feature",
      "properties": {
        "norad_id": 31146,
        "name": "FENGYUN 1C DEB",
        "group": "fengyun-1c-debris",
        "lat": -16.456813056855214,
        "lon": 88.46153186017972,
        "alt_km": 655.0225479588225,
        "timestamp": "2025-12-06T14:35:37.407251+00:00",
        "meta_object_name": "FENGYUN 1C DEB",
        "meta_object_id": "1999-025BGY",
        "meta_epoch": "2025-12-03T06:37:17.170752",
        "meta_mean_motion": 14.27671465,
        "meta_eccentricity": 0.0212195,
        "meta_inclination": 99.0403,
        "meta_ra_of_asc_node": 267.7085,
        "meta_arg_of_pericenter": 194.417,
        "meta_mean_anomaly": 165.0896,
        "meta_ephemeris_type": 0,
        "meta_classification_type": "U",
        "meta_norad_cat_id": 31146,
        "meta_element_set_no": 999,
        "meta_rev_at_epoch": 96630,
        "meta_bstar": 0.00053234,
        "meta_mean_motion_dot": 1.615e-05,
        "meta_mean_motion_ddot": 0,
        "tle_line1": "1 31146U 99025BGY 25337.27589318  .00001615  00000+0  53234-3 0  9995",
        "tle_line2": "2 31146  99.0403 267.7085 0212195 194.4170 165.0896 14.27671465966305"
      },
      "geometry": {
        "type": "Point",
        "coordinates": [
          88.46153186017972,
          -16.456813056855214
        ]
      }
    },
    {
      "type": "Feature",
      "properties": {
        "norad_id": 31148,
        "name": "FENGYUN 1C DEB",
        "group": "fengyun-1c-debris",
        "lat": 18.547737238086505,
        "lon": -137.07882739399926,
        "alt_km": 684.2296459566332,
        "timestamp": "2025-12-06T14:35:37.407261+00:00",
        "meta_object_name": "FENGYUN 1C DEB",
        "meta_object_id": "1999-025BHA",
        "meta_epoch": "2025-12-06T02:51:41.714784",
        "meta_mean_motion": 14.43297432,
        "meta_eccentricity": 0.01368166,
        "meta_inclination": 98.8657,
        "meta_ra_of_asc_node": 225.4144,
        "meta_arg_of_pericenter": 70.2085,
        "meta_mean_anomaly": 291.3796,
        "meta_ephemeris_type": 0,
        "meta_classification_type": "U",
        "meta_norad_cat_id": 31148,
        "meta_element_set_no": 999,
        "meta_rev_at_epoch": 97435,
        "meta_bstar": 0.0013850308,
        "meta_mean_motion_dot": 5.178e-05,
        "meta_mean_motion_ddot": 0,
        "tle_line1": "1 31148U 99025BHA 25340.11923281  .00005178  00000+0  13850-2 0  9992",
        "tle_line2": "2 31148  98.8657 225.4144 0136816  70.2085 291.3796 14.43297432974355"
      },
      "geometry": {
        "type": "Point",
        "coordinates": [
          -137.07882739399926,
          18.547737238086505
        ]
      }
    },
    {
      "type": "Feature",
      "properties": {
        "norad_id": 31150,
        "name": "FENGYUN 1C DEB",
        "group": "fengyun-1c-debris",
        "lat": 80.72730640374749,
        "lon": -79.98908022266252,
        "alt_km": 842.5817213634837,
        "timestamp": "2025-12-06T14:35:37.407271+00:00",
        "meta_object_name": "FENGYUN 1C DEB",
        "meta_object_id": "1999-025BHC",
        "meta_epoch": "2025-12-05T23:10:55.620192",
        "meta_mean_motion": 14.1272714,
        "meta_eccentricity": 0.0014912,
        "meta_inclination": 98.6859,
        "meta_ra_of_asc_node": 348.8269,
        "meta_arg_of_pericenter": 178.5185,
        "meta_mean_anomaly": 244.3829,
        "meta_ephemeris_type": 0,
        "meta_classification_type": "U",
        "meta_norad_cat_id": 31150,
        "meta_element_set_no": 999,
        "meta_rev_at_epoch": 96201,
        "meta_bstar": 0.0002667451,
        "meta_mean_motion_dot": 4.53e-06,
        "meta_mean_motion_ddot": 0,
        "tle_line1": "1 31150U 99025BHC 25339.96592153  .00000453  00000+0  26675-3 0  9997",
        "tle_line2": "2 31150  98.6859 348.8269 0014912 178.5185 244.3829 14.12727140962018"
      },
      "geometry": {
        "type": "Point",
        "coordinates": [
          -79.98908022266252,
          80.72730640374749
        ]
      }
    },
    {
      "type": "Feature",
      "properties": {
        "norad_id": 31151,
        "name": "FENGYUN 1C DEB",
        "group": "fengyun-1c-debris",
        "lat": -39.73129300992863,
        "lon": -6.52726253660326,
        "alt_km": 807.2437386716674,
        "timestamp": "2025-12-06T14:35:37.407281+00:00",
        "meta_object_name": "FENGYUN 1C DEB",
        "meta_object_id": "1999-025BHD",
        "meta_epoch": "2025-12-06T06:21:36.192672",
        "meta_mean_motion": 14.25699331,
        "meta_eccentricity": 0.00567598,
        "meta_inclination": 99.1353,
        "meta_ra_of_asc_node": 345.4298,
        "meta_arg_of_pericenter": 43.5644,
        "meta_mean_anomaly": 316.9996,
        "meta_ephemeris_type": 0,
        "meta_classification_type": "U",
        "meta_norad_cat_id": 31151,
        "meta_element_set_no": 999,
        "meta_rev_at_epoch": 95882,
        "meta_bstar": 0.0039997541,
        "meta_mean_motion_dot": 9.616e-05,
        "meta_mean_motion_ddot": 0,
        "tle_line1": "1 31151U 99025BHD 25340.26500223  .00009616  00000+0  39998-2 0  9991",
        "tle_line2": "2 31151  99.1353 345.4298 0056759  43.5644 316.9996 14.25699331958824"
      },
      "geometry": {
        "type": "Point",
        "coordinates": [
          -6.52726253660326,
          -39.73129300992863
        ]
      }
    }
  ]
}